ONEWEB-0709             
1 55172U 23004AJ  24288.29610245  .00000353  00000+0  96059-3 0  9994
2 55172  87.8916 142.7943 0002393  62.0789 298.0581 13.11413890 85805
ONEWEB-0710             
1 55173U 23004AK  24288.29730275  .00000087  00000+0  19013-3 0  9990
2 55173  87.9082 127.5857 0001509  82.3091 277.8212 13.17648981 87136
ONEWEB-0711             
1 55174U 23004AL  24288.11466472 -.00000014  00000+0 -76381-4 0  9991
2 55174  87.8917 142.7994 0000782  59.9987 300.1218 13.11419741 85745
ONEWEB-0713             
1 55175U 23004AM  24288.13332694  .00000581  00000+0  16029-2 0  9990
2 55175  87.8915 142.8038 0001265  76.3125 283.8144 13.11418797 85732
ONEWEB-0715             
1 55176U 23004AN  24288.50973316  .00000611  00000+0  16882-2 0  9995
2 55176  87.8917 142.7293 0001731  66.5362 293.5947 13.11417476 85821
ONEWEB-0716             
1 55177U 23004AP  24288.29055619 -.00000006  00000+0 -48555-4 0  9993
2 55177  87.9083 127.5809 0001704  90.8758 269.2569 13.17648972 87139
ONEWEB-0717             
1 55178U 23004AQ  24288.50147702  .00000170  00000+0  40495-3 0  9997
2 55178  87.9085 127.5013 0001007  54.7472 305.3753 13.17651312 87215
ONEWEB-0719             
1 55179U 23004AR  24288.51159117  .00000074  00000+0  15854-3 0  9996
2 55179  87.9084 127.4851 0001543  93.1279 267.0029 13.17647678 87165
ONEWEB-0530             
1 55796U 23029A   24288.56647858  .00000032  00000+0  47748-4 0  9999
2 55796  87.9287  35.9394 0001225 110.2782 249.8483 13.20773852 80542
ONEWEB-0534             
1 55797U 23029B   24288.55385296  .00000071  00000+0  14219-3 0  9993
2 55797  87.9285  35.9485 0001896 103.4935 256.6410 13.20774603 80541
ONEWEB-0556             
1 55798U 23029C   24288.56015592  .00000052  00000+0  95507-4 0  9993
2 55798  87.9285  35.9407 0001813 130.1760 229.9532 13.20776223 80546
ONEWEB-0562             
1 55799U 23029D   24288.77480702  .00000026  00000+0  32772-4 0  9992
2 55799  87.9286  35.8890 0001212 136.9037 223.2191 13.20773548 81251
ONEWEB-0563             
1 55800U 23029E   24288.54122673  .00000093  00000+0  19713-3 0  9993
2 55800  87.9287  35.9503 0002141 106.3487 253.7882 13.20774560 80539
ONEWEB-0564             
1 55801U 23029F   24288.76219212 -.00001112  00000+0 -27673-2 0  9992
2 55801  87.9286  35.8928 0001292 107.3460 252.7814 13.20766227 81285
ONEWEB-0638             
1 55802U 23029G   24288.31950798  .00000007  00000+0 -16443-4 0  9991
2 55802  87.8989  51.2308 0001740 115.8470 244.2839 13.14502164 79148
ONEWEB-0639             
1 55803U 23029H   24288.63091809  .00000084  00000+0  17866-3 0  9999
2 55803  87.9145  66.3987 0003053  95.9231 264.2250 13.19728387 79068
ONEWEB-0640             
1 55804U 23029J   24288.32900416 -.00000072  00000+0 -22805-3 0  9997
2 55804  87.8999  51.2217 0002181 119.7477 240.3870 13.14502728 79160
ONEWEB-0641             
1 55805U 23029K   24288.47454624  .00000180  00000+0  41802-3 0  9995
2 55805  87.9139  66.4089 0001986  95.2132 264.9228 13.19727191 78369
ONEWEB-0642             
1 55806U 23029L   24288.46980869  .00000230  00000+0  54088-3 0  9996
2 55806  87.9143  66.4367 0002783  92.0073 268.1378 13.19726869 78351
ONEWEB-0643             
1 55807U 23029M   24288.60335348 -.00000426  00000+0 -11835-2 0  9990
2 55807  87.9001  51.1456 0002470  82.7606 277.3804 13.14503680 79172
ONEWEB-0644             
1 55808U 23029N   24288.61670869  .00000084  00000+0  17833-3 0  9995
2 55808  87.9147  66.4063 0002327  92.1354 268.0045 13.19724831 78376
ONEWEB-0645             
1 55809U 23029P   24288.61274648  .00000098  00000+0  21280-3 0  9997
2 55809  87.9146  66.4068 0002250 102.9535 257.1849 13.19726180 78377
ONEWEB-0646             
1 55810U 23029Q   24288.33949408  .00000282  00000+0  67227-3 0  9997
2 55810  87.9145  66.4591 0001983  91.9521 268.1839 13.19725753 78324
ONEWEB-0648             
1 55811U 23029R   24288.57163850  .00000291  00000+0  75150-3 0  9997
2 55811  87.9007  51.1245 0002818 102.9862 257.1582 13.14506249 79177
ONEWEB-0649             
1 55812U 23029S   24288.68145946  .00000149  00000+0  33986-3 0  9999
2 55812  87.9142  66.3843 0002323  98.8436 261.2960 13.19728092 79095
ONEWEB-0650             
1 55813U 23029T   24288.29763523  .00000038  00000+0  62731-4 0  9992
2 55813  87.9143  66.4645 0002045  93.5098 266.6269 13.19728207 78329
ONEWEB-0652             
1 55814U 23029U   24288.32426228  .00000263  00000+0  67383-3 0  9992
2 55814  87.9001  51.1853 0001605 100.7517 259.3794 13.14505389 79112
ONEWEB-0653             
1 55815U 23029V   24288.76509020 -.00000249  00000+0 -70680-3 0  9993
2 55815  87.9005  51.0802 0001630 109.8001 250.3304 13.14506769 79892
ONEWEB-0654             
1 55816U 23029W   24288.76033434 -.00000184  00000+0 -53197-3 0  9997
2 55816  87.9002  51.0881 0001302 107.0916 253.0356 13.14506165 79918
ONEWEB-0656             
1 55817U 23029X   24288.75587079  .00000016  00000+0  80621-5 0  9992
2 55817  87.9289  35.8359 0001204  92.9141 267.2130 13.20775227 81250
ONEWEB-0657             
1 55818U 23029Y   24287.83799900  .00000012  00000+0 -27100-5 0  9999
2 55818  87.9142  66.5616 0001496  65.1960 294.9328 13.19727981 78276
ONEWEB-0658             
1 55819U 23029Z   24288.36397353  .00000116  00000+0  25636-3 0  9999
2 55819  87.9143  66.3915 0002326  91.5428 268.5971 13.19728722 78357
ONEWEB-0660             
1 55820U 23029AA  24288.58591109  .00000075  00000+0  16647-3 0  9996
2 55820  87.9005  51.0963 0002082 108.0526 252.0830 13.14502230 79185
ONEWEB-0661             
1 55821U 23029AB  24288.39243786  .00000011  00000+0 -53306-5 0  9997
2 55821  87.8999  51.2029 0002002 111.4375 248.6968 13.14507135 79142
ONEWEB-0662             
1 55822U 23029AC  24288.57956984  .00000211  00000+0  53431-3 0  9997
2 55822  87.9005  51.1729 0002070 103.4521 256.6839 13.14506664 79217
ONEWEB-0663             
1 55823U 23029AD  24288.59520607  .00000087  00000+0  18152-3 0  9991
2 55823  87.9288  35.9277 0002220 105.4175 254.7204 13.20805660 80541
ONEWEB-0664             
1 55824U 23029AE  24288.59173231  .00000387  00000+0  92003-3 0  9999
2 55824  87.9285  35.9436 0001915 111.4625 248.6712 13.20772371 80541
ONEWEB-0665             
1 55825U 23029AF  24288.38926252  .00000004  00000+0 -24812-4 0  9997
2 55825  87.9002  51.1785 0002061 105.8918 254.2438 13.14501087 79162
ONEWEB-0666             
1 55826U 23029AG  24288.58541856  .00000054  00000+0  10214-3 0  9997
2 55826  87.9286  35.9345 0001388  95.4631 264.6660 13.20771351 81239
ONEWEB-0667             
1 55827U 23029AH  24288.57910696  .00000075  00000+0  15259-3 0  9996
2 55827  87.9286  35.8692 0001946 107.5424 252.5922 13.20773819 80540
ONEWEB-0669             
1 55828U 23029AJ  24288.57437512  .00000116  00000+0  25295-3 0  9995
2 55828  87.9286  35.9069 0001144 116.2377 243.8874 13.20774947 80546
ONEWEB-0670             
1 55829U 23029AK  24288.82377867 -.00000076  00000+0 -23830-3 0  9990
2 55829  87.9006  51.1012 0001886 114.6889 245.4437 13.14502849 79935
ONEWEB-0671             
1 55830U 23029AL  24288.81413377  .00000071  00000+0  14573-3 0  9995
2 55830  87.9143  66.3638 0001845 103.2350 256.8988 13.19727695 79089
ONEWEB-0672             
1 55831U 23029AM  24288.56962875  .00000146  00000+0  32668-3 0  9998
2 55831  87.9286  35.8924 0001520  93.5480 266.5827 13.20773667 80547
ONEWEB-0673             
1 55832U 23029AN  24288.79045040  .00000026  00000+0  33814-4 0  9992
2 55832  87.9142  66.3345 0002046  95.1641 264.9725 13.19727083 79104
ONEWEB-0674             
1 55833U 23029AP  24288.63982665  .00000308  00000+0  79620-3 0  9996
2 55833  87.9001  51.1379 0002002 116.4087 243.7249 13.14502313 79884
ONEWEB-0675             
1 55834U 23029AQ  24288.80624037  .00000063  00000+0  12421-3 0  9996
2 55834  87.9146  66.3692 0001745  83.2421 276.8910 13.19724880 79126
ONEWEB-0720             
1 55835U 23029AR  24288.64671346  .00000168  00000+0  38692-3 0  9998
2 55835  87.9146  66.4006 0002227  99.3459 260.7925 13.19728147 79007
ONEWEB-0537             
1 56046U 23043A   24288.17903815  .00000208  00000+0  51067-3 0  9992
2 56046  87.9149 350.4700 0001810  91.3037 268.8301 13.16593812 78566
ONEWEB-0538             
1 56047U 23043B   24288.47669489  .00000159  00000+0  38254-3 0  9990
2 56047  87.9148 350.4316 0002078  92.3765 267.7604 13.16592905 78617
ONEWEB-0546             
1 56048U 23043C   24288.16003411  .00000197  00000+0  48179-3 0  9993
2 56048  87.9149 350.4604 0001238  80.5800 279.5471 13.16597781 78569
ONEWEB-0547             
1 56049U 23043D   24288.30373790  .00000064  00000+0  12385-3 0  9993
2 56049  87.9364   5.6435 0002009  95.4710 264.6653 13.21826771 77524
ONEWEB-0548             
1 56050U 23043E   24288.41336097  .00000135  00000+0  32049-3 0  9994
2 56050  87.9150 350.4522 0001907 116.3505 243.7822 13.16593120 78595
ONEWEB-0549             
1 56051U 23043F   24288.21937096  .00000139  00000+0  30612-3 0  9997
2 56051  87.9367   5.6610 0002240  89.9337 270.2054 13.21826272 77518
ONEWEB-0550             
1 56052U 23043G   24288.50954132 -.00000031  00000+0 -10549-3 0  9990
2 56052  87.9364   5.6075 0001884 105.9969 254.1372 13.21825867 77551
ONEWEB-0551             
1 56053U 23043H   24288.49094225  .00000160  00000+0  39095-3 0  9995
2 56053  87.9127  20.7800 0002097 100.1551 259.9816 13.15547164 76104
ONEWEB-0552             
1 56054U 23043J   24288.50322341  .00000186  00000+0  41877-3 0  9990
2 56054  87.9365   5.6178 0002201 105.3944 254.7433 13.21827644 77558
ONEWEB-0553             
1 56055U 23043K   24288.16635915  .00001168  00000+0  30217-2 0  9993
2 56055  87.9146 350.4897 0001775  92.2371 267.8964 13.16603577 78576
ONEWEB-0554             
1 56056U 23043L   24288.22970599  .00000144  00000+0  34421-3 0  9996
2 56056  87.9150 350.5014 0002027 118.6898 241.4436 13.16596903 78567
